STARLINK-2106
1 47386U 21005AP  26092.82266668  .00090332  00000+0  58923-2 0  9994
2 47386  53.0556 283.2725 0001598  85.2071 274.9100 15.07108567287100
